{"type":"FeatureCollection","features":[{"type":"Feature","geometry":{"type":"LineString","coordinates":[[6.9657437,50.3459722],[6.9656854,50.3459504],[6.9656255,50.3459236],[6.9655649,50.3459018],[6.9655136,50.3458814],[6.9654739,50.345864],[6.9654156,50.3458432],[6.9653666,50.3458209],[6.9653371,50.3458025],[6.9653106,50.3457832],[6.9652798,50.3457591],[6.9652627,50.3457471],[6.9652379,50.3457298],[6.9651959,50.3457075],[6.9651523,50.3456817],[6.965115,50.3456563],[6.9650676,50.345632],[6.9650264,50.3456077],[6.9649828,50.3455859],[6.9649424,50.3455631],[6.9648919,50.3455358],[6.9648356,50.3455026],[6.9647811,50.3454755],[6.9647374,50.3454528],[6.9646853,50.3454339],[6.964638,50.3454128],[6.9645883,50.3453864],[6.9645374,50.3453683],[6.9644901,50.3453494],[6.964421,50.3453209],[6.9643631,50.3452951],[6.9643066,50.3452728],[6.9642581,50.3452496],[6.9641899,50.3452273],[6.9641391,50.3452052],[6.9640923,50.3451867],[6.9640415,50.3451666],[6.9639948,50.3451471],[6.9639391,50.3451254],[6.9638891,50.3451043],[6.9638407,50.3450848],[6.9637924,50.3450657],[6.9637464,50.3450457],[6.9636924,50.345023],[6.9636254,50.3449983],[6.9635843,50.3449798],[6.9635319,50.3449587],[6.9634591,50.3449325],[6.9634066,50.3449093],[6.9633502,50.3448877],[6.963301,50.3448686],[6.9632599,50.3448506],[6.9632067,50.3448306],[6.9631494,50.3448059],[6.9630809,50.3447776],[6.963018,50.3447539],[6.9629631,50.3447333],[6.9629156,50.3447127],[6.9628408,50.3446801],[6.9627772,50.3446578],[6.9627226,50.3446338],[6.9626724,50.3446149],[6.9626169,50.3445932],[6.9625667,50.3445692],[6.9625148,50.3445503],[6.962452,50.3445245],[6.9624072,50.3445056],[6.9623535,50.3444873],[6.9623033,50.3444679],[6.9622648,50.3444524],[6.9622165,50.3444301],[6.9621681,50.3444101],[6.962092,50.3443781],[6.96204,50.3443593],[6.9619648,50.3443284],[6.961911,50.3443067],[6.9618546,50.3442827],[6.9617785,50.3442535],[6.961723,50.3442312],[6.9616719,50.3442101],[6.9616021,50.3441867],[6.9615564,50.3441672],[6.9615205,50.3441507],[6.9614722,50.3441312],[6.9613947,50.3440998],[6.9613408,50.344075],[6.96127,50.3440476],[6.9612085,50.3440239],[6.961136,50.3439949],[6.9610745,50.3439701],[6.9610087,50.3439432],[6.9609556,50.3439207],[6.9609009,50.3438986],[6.9608301,50.3438701],[6.9607435,50.3438351],[6.9606719,50.3438072],[6.9605977,50.3437787],[6.9605261,50.3437469],[6.9604452,50.3437163],[6.9603777,50.3436894],[6.9603002,50.343656],[6.9602054,50.3436192],[6.9601359,50.343591],[6.9600813,50.3435678],[6.9600285,50.3435458],[6.9599764,50.343526],[6.9598913,50.3434897],[6.9598062,50.343456],[6.959724,50.3434152],[6.9596466,50.3433824],[6.9595664,50.3433429],[6.9594799,50.3432984],[6.9594025,50.3432598],[6.9593174,50.3432068],[6.9592315,50.3431624],[6.9591556,50.3431108],[6.9590887,50.3430668],[6.9590127,50.3430183],[6.9589283,50.3429594],[6.9588615,50.3429083],[6.9587876,50.342849],[6.958699,50.3427821],[6.95863,50.3427237],[6.9585547,50.3426658],[6.9584724,50.3426021],[6.9583901,50.3425365],[6.9583092,50.34247],[6.9582318,50.3424108],[6.9581432,50.3423425],[6.9580602,50.342277],[6.9579737,50.342211],[6.9578991,50.3421517],[6.9578121,50.3420847],[6.9577249,50.3420218],[6.957689,50.3419904],[6.9576462,50.3419552],[6.9576013,50.3419207],[6.9575541,50.3418879],[6.9575172,50.3418539],[6.9574707,50.3418207],[6.9573914,50.3417589],[6.9573122,50.3416933],[6.9572254,50.3416298],[6.9571369,50.3415596],[6.957048,50.341491],[6.956962,50.341424],[6.956882,50.341361],[6.956809,50.341302],[6.95674,50.341251],[6.956678,50.341207],[6.9566195,50.3411592],[6.9565713,50.3411193],[6.9565205,50.3410855],[6.9564825,50.3410527],[6.9564402,50.3410178],[6.9563931,50.3409854],[6.9563556,50.3409563],[6.9563067,50.3409228],[6.9562655,50.3408845],[6.9562222,50.3408524],[6.9561868,50.340822],[6.9561542,50.3407926],[6.9561158,50.3407554],[6.9560729,50.340721],[6.9560399,50.3406867],[6.9559982,50.3406437],[6.9559615,50.3406085],[6.9559272,50.3405734],[6.9558893,50.3405366],[6.955855,50.3405046],[6.9558232,50.3404632],[6.9557901,50.3404202],[6.9557571,50.3403741],[6.9557264,50.3403335],[6.9556946,50.3402913],[6.9556665,50.3402428],[6.9556358,50.340203],[6.955601,50.3401606],[6.9555691,50.3401184],[6.9555447,50.340077],[6.9555202,50.3400442],[6.9555006,50.3400184],[6.9554785,50.3399926],[6.955459,50.3399739],[6.955443,50.3399551],[6.9554235,50.3399348],[6.9554075,50.3399176],[6.9553879,50.3398957],[6.9553696,50.3398738],[6.9553524,50.3398567],[6.9553341,50.339841],[6.9553145,50.3398215],[6.95529,50.3397957],[6.9552548,50.3397608],[6.9552187,50.3397248],[6.9551758,50.339688],[6.9551441,50.3396621],[6.9551035,50.3396347],[6.9550538,50.3395993],[6.9550109,50.3395676],[6.9549612,50.3395374],[6.9549036,50.3394991],[6.9548595,50.3394717],[6.9548223,50.3394465],[6.9547793,50.3394234],[6.9547477,50.3394061],[6.9547104,50.3393838],[6.9546743,50.3393607],[6.9546284,50.3393327],[6.9545961,50.3393116],[6.9545616,50.33929],[6.9545293,50.339268],[6.9544896,50.3392436],[6.9544558,50.339222],[6.9544212,50.3392033],[6.954384,50.3391786],[6.9543404,50.339156],[6.9542983,50.3391302],[6.9542602,50.339106],[6.9542211,50.3390791],[6.9541798,50.3390532],[6.9541407,50.3390335],[6.9540969,50.339003],[6.9540568,50.3389779],[6.9540168,50.3389545],[6.9539834,50.3389364],[6.9539442,50.3389113],[6.9539191,50.338897],[6.9538816,50.3388703],[6.9538474,50.3388469],[6.9538173,50.3388229],[6.9537806,50.338792],[6.9537489,50.3387649],[6.9537202,50.3387366],[6.9536952,50.3387137],[6.9536685,50.338685],[6.9536368,50.3386487],[6.9536126,50.3386173],[6.9535867,50.3385806],[6.9535659,50.3385534],[6.953545,50.3385262],[6.9535308,50.3384985],[6.9535139,50.3384733],[6.9534972,50.3384434],[6.9534805,50.3384141],[6.953468,50.3383875],[6.953454,50.3383637],[6.9534383,50.3383416],[6.9534242,50.3383167],[6.9534144,50.338303],[6.9533933,50.3382731],[6.9533706,50.3382465],[6.953344,50.3382209],[6.9533256,50.3381984],[6.9532979,50.338178],[6.9532681,50.3381607],[6.9532481,50.3381483],[6.9532231,50.3381344],[6.953183,50.3381171],[6.953144,50.3381037],[6.9531067,50.3380936],[6.9530649,50.3380843],[6.9530044,50.3380791],[6.952965,50.3380748],[6.9529108,50.3380757],[6.95286,50.3380778],[6.9528201,50.3380791],[6.9527845,50.3380791],[6.9527301,50.3380868],[6.9526724,50.3380942],[6.9526084,50.3381016],[6.9525623,50.3381072],[6.9525179,50.3381113],[6.9524747,50.3381177],[6.9524178,50.3381205],[6.952365,50.3381205],[6.9523114,50.3381193],[6.9522494,50.338116],[6.9521898,50.3381064],[6.9521363,50.3380964],[6.9520839,50.3380841],[6.9520358,50.3380687],[6.9519912,50.3380549],[6.9519467,50.3380353],[6.9519028,50.3380196],[6.9518637,50.3380031],[6.9518046,50.3379799],[6.9517493,50.3379573],[6.9516984,50.3379367],[6.9516358,50.3379085],[6.9515808,50.3378878],[6.9515407,50.3378697],[6.9514878,50.3378478],[6.9514321,50.3378231],[6.9513966,50.3378063],[6.9513475,50.337783],[6.9512946,50.3377622],[6.9512593,50.3377457],[6.9512177,50.3377304],[6.9511833,50.3377229],[6.9511507,50.3377157],[6.9511064,50.3377128],[6.9510562,50.3377157],[6.9509951,50.3377252],[6.9509303,50.3377404],[6.9508358,50.3377737],[6.9507588,50.337808],[6.9507055,50.3378304],[6.9506508,50.337856],[6.950602,50.3378804],[6.9505512,50.3379072],[6.9505,50.3379331],[6.9504178,50.3379748],[6.9503724,50.3379977],[6.950328,50.3380194],[6.9502646,50.3380527],[6.9501859,50.3380957],[6.9501156,50.3381308],[6.950077,50.3381498],[6.950062,50.3381591],[6.950045830166829,50.338167119642236],[6.950012095436648,50.338185431911995],[6.94995954903618,50.338211937647515],[6.949923953001672,50.33823303416503],[6.949884119342926,50.338254671608894],[6.949841743109971,50.33827684997837],[6.9497931,50.338307],[6.9497519,50.3383335],[6.9497038,50.3383634],[6.9496721,50.3383816],[6.949637489669385,50.33840288783412],[6.9496134,50.3384168],[6.9495914,50.3384315],[6.9495448,50.3384636],[6.9494982,50.3384946],[6.9494506,50.338525],[6.949413,50.338554],[6.9493656,50.3385894],[6.9493209,50.3386193],[6.9492834,50.3386456],[6.949242,50.338677],[6.9492071,50.3387052],[6.9491829,50.3387274],[6.949141,50.338762],[6.949085,50.3388074],[6.9490371,50.3388504],[6.9489799,50.3388965],[6.948923,50.3389447],[6.9488696,50.3389929],[6.9488183,50.3390383],[6.948766,50.339084],[6.948718,50.339133],[6.948665,50.339183],[6.948605,50.339235],[6.948539,50.339284],[6.948444,50.3393194],[6.9483455,50.3393442],[6.9482421,50.3393478],[6.9481392,50.3393258],[6.9480469,50.3392885],[6.9479602,50.3392452],[6.9478851,50.339188],[6.9478272,50.3391419],[6.9477653,50.3390853],[6.9477158,50.3390346],[6.9476708,50.3389789],[6.9476204,50.3389187],[6.9475642,50.3388498],[6.9475053,50.3387784],[6.9474448,50.3387058],[6.9473864,50.3386352],[6.9473186,50.3385514],[6.9472529,50.3384731],[6.9471784,50.3383816],[6.9471007,50.3382872],[6.9470114,50.3381894],[6.9469171,50.3381102],[6.9468145,50.3380349],[6.9467105,50.3379693],[6.9465926,50.3379004],[6.9465382,50.3378685],[6.9464536,50.3378295],[6.9463736,50.3377968],[6.9462991,50.337762],[6.9461634,50.3377084],[6.9461083,50.3376836],[6.9460438,50.3376605],[6.945897,50.3376147],[6.9458064,50.3375856],[6.9457219,50.3375594],[6.9455934,50.3375239],[6.9454622,50.3374824],[6.9453253,50.3374452],[6.9451846,50.3374054],[6.9450606,50.3373713],[6.9449711,50.33735],[6.9448785,50.3373379],[6.9446983,50.3373187],[6.9445438,50.3373173],[6.9443886,50.337323],[6.9442513,50.3373365],[6.9441228,50.3373603],[6.9440193,50.3373861],[6.9438908,50.3374233],[6.9437502,50.337468],[6.9435733,50.3375269],[6.9434232,50.3375773],[6.9432671,50.3376288],[6.9431158,50.3376771],[6.9429608,50.3377255],[6.9428006,50.337778],[6.9426666,50.3378231],[6.9425107,50.3378744],[6.9423433,50.3379192],[6.9421792,50.3379543],[6.9420108,50.3379845],[6.9418988,50.3380052],[6.9418445,50.338014],[6.9417682,50.3380247],[6.9416863,50.3380339],[6.941611,50.3380423],[6.9415575,50.3380479],[6.9414812,50.3380539],[6.9414028,50.3380598],[6.9412615,50.338069],[6.9411285,50.338075],[6.9409966,50.3380822],[6.9408609,50.3380898],[6.9407062,50.3380972],[6.9405324,50.3381068],[6.9403887,50.3381147],[6.940263,50.3381211],[6.9401067,50.3381299],[6.9399704,50.3381335],[6.9398398,50.3381267],[6.9397147,50.3381],[6.9395847,50.3380645],[6.9394734,50.3380294],[6.9393584,50.3379962],[6.9392559,50.3379687],[6.9391515,50.3379456],[6.9390433,50.3379344],[6.9389339,50.3379356],[6.9388085,50.3379474],[6.9386991,50.337975],[6.9386522,50.3379872],[6.9385897,50.3380116],[6.9385447,50.3380291],[6.938504,50.3380515],[6.938419,50.3381025],[6.938321,50.3381578],[6.9382379,50.338204],[6.9381514,50.3382543],[6.9380714,50.338307],[6.9379933,50.3383664],[6.937932,50.3384251],[6.9378726,50.3384909],[6.9378242,50.338555],[6.9377766,50.338628],[6.9377245,50.3386949],[6.9376893,50.338763],[6.9376293,50.3388388],[6.9375718,50.3388982],[6.937533,50.3389346],[6.937478,50.3389693],[6.9374047,50.3390123],[6.9373203,50.3390494],[6.9372324,50.3390848],[6.9371505,50.3391187],[6.9370573,50.3391566],[6.936965,50.339193],[6.936876,50.33923],[6.936792,50.339268],[6.936709,50.339307],[6.936639,50.339357],[6.936571,50.339411],[6.9365261,50.3394715],[6.936492,50.3395387],[6.9364595,50.3396085],[6.9364319,50.3396764],[6.9364006,50.3397542],[6.9363565,50.3398201],[6.9363196,50.3398564],[6.9362677,50.3398939],[6.9362269,50.3399191],[6.9361831,50.3399406],[6.9361475,50.3399562],[6.9360956,50.3399706],[6.9360068,50.3399941],[6.9359542,50.3400037],[6.9358986,50.3400108],[6.9357823,50.340022],[6.9356697,50.3400327],[6.9355659,50.3400438],[6.9354509,50.3400562],[6.935349,50.3400678],[6.9352446,50.3400781],[6.9351337,50.3400896],[6.9350249,50.3400992],[6.9349208,50.3401105],[6.934793,50.3401239],[6.9346798,50.3401363],[6.9345698,50.340147],[6.9344616,50.3401578],[6.9343538,50.3401694],[6.9342463,50.340181],[6.9341363,50.3401925],[6.9340438,50.3402065],[6.9339737,50.3402192],[6.9338837,50.3402451],[6.9337932,50.3402798],[6.933718,50.340322],[6.933653,50.340372],[6.9336002,50.3404217],[6.933552,50.340478],[6.9335307,50.3405079],[6.9335157,50.3405418],[6.9335063,50.3405761],[6.9334999,50.3406126],[6.9334981,50.3406491],[6.9334934,50.3406836],[6.9334898,50.340751],[6.9334893,50.3407888],[6.9334818,50.3408239],[6.9334646,50.3409019],[6.9334454,50.3409878],[6.9334098,50.3410575],[6.9333481,50.3411403],[6.9332678,50.3412118],[6.9331628,50.3412825],[6.9330485,50.3413414],[6.932923,50.3413958],[6.9327895,50.3414543],[6.9326633,50.3415131],[6.9325321,50.3415716],[6.9323895,50.3416335],[6.9322456,50.3416961],[6.9321064,50.3417575],[6.9319661,50.3418221],[6.9317994,50.3418942],[6.9316376,50.3419682],[6.9314832,50.3420343],[6.9313465,50.3420949],[6.9312102,50.3421552],[6.9310705,50.3422158],[6.9309132,50.3422855],[6.9307768,50.342343],[6.9306421,50.3424023],[6.9305318,50.3424503],[6.9304002,50.3425062],[6.930269,50.3425618],[6.9301444,50.3426187],[6.9300308,50.3426696],[6.9299272,50.3427163],[6.9298271,50.3427598],[6.9297219,50.3428075],[6.9296138,50.3428562],[6.9295126,50.3429021],[6.9293962,50.3429545],[6.9292943,50.3430134],[6.929188,50.343078],[6.929068,50.343139],[6.928954,50.343202],[6.928859,50.3432724],[6.9287497,50.3433483],[6.9286605,50.3434195],[6.9285604,50.343495],[6.928466,50.3435702],[6.9283738,50.3436421],[6.9282934,50.3437037],[6.9282203,50.3437658],[6.9281379,50.3438267],[6.9280677,50.3438816],[6.9280004,50.3439393],[6.9279349,50.343988],[6.92788,50.344032],[6.927831,50.344074],[6.927772,50.3441141],[6.9277322,50.3441459],[6.9276917,50.3441839],[6.9276587,50.3442076],[6.9276267,50.3442316],[6.927603,50.3442517],[6.927571,50.3442744],[6.9275357,50.3443034],[6.9275079,50.3443274],[6.9274698,50.3443582],[6.9274322,50.3443878],[6.9273879,50.3444236],[6.9273471,50.3444559],[6.9273118,50.3444832],[6.9272752,50.3445113],[6.9272315,50.3445448],[6.9271893,50.344578],[6.9271512,50.3446079],[6.9271234,50.3446316],[6.9270839,50.3446627],[6.9270537,50.3446864],[6.9270222,50.3447107],[6.9269878,50.3447388],[6.9269563,50.3447616],[6.926915,50.344793],[6.9268811,50.3448223],[6.9268393,50.3448537],[6.9268036,50.3448831],[6.9267687,50.3449109],[6.9267246,50.3449456],[6.9266759,50.344985],[6.9266281,50.3450205],[6.9265798,50.3450599],[6.9265506,50.3450833],[6.926519,50.3451078],[6.9264842,50.3451341],[6.9264475,50.3451611],[6.926413,50.34519],[6.9263773,50.3452175],[6.9263462,50.345246],[6.9263058,50.3452744],[6.9262557,50.345314],[6.9262023,50.345354],[6.9261689,50.3453806],[6.9261396,50.3454094],[6.9261039,50.3454411],[6.9260542,50.3454982],[6.9260199,50.3455373],[6.9259911,50.3455773],[6.9259748,50.345615],[6.9259554,50.3456536],[6.9259401,50.3456898],[6.9259255,50.3457344],[6.9259159,50.3457706],[6.9259113,50.3458171],[6.9259093,50.3458593],[6.9259051,50.3459091],[6.9258963,50.3459541],[6.9258916,50.3460065],[6.9258819,50.3460578],[6.9258734,50.3461138],[6.925868,50.3461683],[6.9258574,50.3462281],[6.9258471,50.3462933],[6.9258387,50.3463459],[6.9258345,50.3463999],[6.9258224,50.3464665],[6.9258168,50.3465284],[6.9258238,50.3465909],[6.9258217,50.3466261],[6.9258273,50.3466646],[6.9258333,50.3466951],[6.9258481,50.3467295],[6.925863,50.3467665],[6.9258806,50.3468006],[6.9259012,50.3468377],[6.9259072,50.3468578],[6.9259179,50.3468783],[6.9259415,50.3469081],[6.9259596,50.3469368],[6.9259823,50.3469661],[6.9260055,50.3470058],[6.926025,50.3470357],[6.9260459,50.3470662],[6.926084,50.3471201],[6.9261211,50.3471814],[6.9261629,50.3472404],[6.9262,50.347299],[6.926243,50.347359],[6.9262833,50.3474225],[6.9263246,50.3474847],[6.9263492,50.3475226],[6.9263775,50.3475632],[6.9264151,50.3476195],[6.9264605,50.3476842],[6.926505,50.3477591],[6.9265289,50.3478051],[6.9265503,50.3478431],[6.9265768,50.3478846],[6.926593,50.3479202],[6.9266108,50.3479624],[6.9266224,50.3479964],[6.9266405,50.3480296],[6.9266498,50.3480628],[6.9266647,50.3481053],[6.9266735,50.3481426],[6.9266816,50.3481831],[6.9266932,50.3482305],[6.9267017,50.3482709],[6.9267119,50.3483153],[6.9267261,50.3483788],[6.9267419,50.3484401],[6.9267558,50.3485017],[6.9267735,50.3485684],[6.9267874,50.3486294],[6.9268032,50.3486949],[6.9268208,50.3487683],[6.9268334,50.3488329],[6.9268575,50.3489076],[6.926878,50.3489742],[6.9269016,50.3490394],[6.9269139,50.3490735],[6.9269195,50.3491111],[6.9269255,50.3491463],[6.9269311,50.3491846],[6.9269395,50.3492135],[6.9269409,50.3492442],[6.9269428,50.3492796],[6.9269469,50.3493145],[6.9269574,50.3493869],[6.9269657,50.3494527],[6.9269736,50.34953],[6.9269792,50.3496044],[6.9269866,50.3496814],[6.9269886,50.3497551],[6.9269816,50.3498271],[6.9269775,50.3498994],[6.9269654,50.3499678],[6.9269556,50.3500368],[6.9269466,50.3501029],[6.9269363,50.3501811],[6.9269261,50.3502557],[6.9269173,50.3503357],[6.9269066,50.3504053],[6.9268955,50.3504814],[6.9268885,50.3505587],[6.9268711,50.3506494],[6.9268539,50.3507361],[6.9268377,50.3508268],[6.926827,50.3509189],[6.9268158,50.3510143],[6.9267935,50.351111],[6.9267688,50.3512069],[6.926746,50.3513043],[6.9267219,50.3513991],[6.9266884,50.3515006],[6.9266515,50.3516075],[6.9266053,50.3517236],[6.926559,50.35184],[6.926505,50.35196],[6.9264809,50.3520258],[6.9264461,50.3520874],[6.9264178,50.3521514],[6.926383,50.3522128],[6.926313,50.352339],[6.9262469,50.3524583],[6.9261689,50.3525743],[6.9261302,50.3526346],[6.9260907,50.3526957],[6.926047,50.3527566],[6.9260008,50.3528211],[6.9259622,50.3528798],[6.9259195,50.3529384],[6.9258752,50.3530021],[6.925827,50.3530634],[6.9257323,50.3531936],[6.9256552,50.3533045],[6.9255836,50.3534009],[6.9255064,50.3535078],[6.9254327,50.3536119],[6.9253537,50.353718],[6.9252817,50.3538159],[6.9252158,50.3539135],[6.9251589,50.3540092],[6.9250862,50.3541169],[6.925018,50.3542295],[6.9249662,50.3543156],[6.9248977,50.3544133],[6.9248396,50.3545084],[6.9247808,50.3546039],[6.9247251,50.3546955],[6.9246584,50.3547981],[6.9246012,50.3548922],[6.9245353,50.3549943],[6.9244693,50.3551053],[6.9244199,50.3551864],[6.9243656,50.3552809],[6.9243114,50.3553715],[6.924244,50.3554781],[6.9241784,50.3555748],[6.9241156,50.3556574],[6.9240404,50.3557559],[6.9239651,50.35584],[6.9238888,50.3559232],[6.9238031,50.3559982],[6.9237168,50.3560752],[6.9236254,50.3561564],[6.9235391,50.3562264],[6.9234386,50.356295],[6.9233413,50.3563636],[6.9232112,50.3564441],[6.9230771,50.3565187],[6.9229413,50.3565888],[6.9227891,50.3566715],[6.9226369,50.3567336],[6.9224823,50.3567946],[6.9223058,50.3568547],[6.9221906,50.3568961],[6.9220299,50.3569412],[6.9219437,50.3569677],[6.9218464,50.3569977],[6.921672,50.3570481],[6.9215151,50.3570941],[6.9213506,50.3571414],[6.9211708,50.3571922],[6.9210117,50.3572374],[6.9208397,50.3572882],[6.920702,50.3573232],[6.9205548,50.3573685],[6.9204161,50.3574144],[6.9202818,50.3574796],[6.9201656,50.3575554],[6.9200807,50.3576473],[6.9200312,50.3577419],[6.9200119,50.3578269],[6.9200098,50.3579227],[6.9200388,50.3580229],[6.9200893,50.3581141],[6.920173,50.358196],[6.9203015,50.3582881],[6.920461,50.358356],[6.9206386,50.3584143],[6.9207267,50.3584356],[6.9208192,50.3584596],[6.9209009,50.3584788],[6.9209858,50.3585048],[6.9210739,50.3585254],[6.9211717,50.3585487],[6.9212566,50.358572],[6.9213448,50.3585988],[6.921521,50.3586406],[6.9216984,50.3586913],[6.9218899,50.3587376],[6.9221038,50.3587966],[6.9223156,50.3588508],[6.922523,50.3589097],[6.922724,50.3589577],[6.9229207,50.3590119],[6.9231045,50.3590675],[6.9232954,50.3591282],[6.9234652,50.3591783],[6.9236275,50.3592352],[6.9237759,50.3592949],[6.9239285,50.35936],[6.9240693,50.3594354],[6.924196,50.35952],[6.924337,50.359605],[6.924479,50.359692],[6.924628,50.35978],[6.9247855,50.3598614],[6.924965,50.3599299],[6.925137,50.3599985],[6.9253068,50.3600671],[6.9254573,50.3601295],[6.9255604,50.3601747],[6.9256659,50.3602275],[6.9257906,50.3603009],[6.9258613,50.3603459],[6.9259339,50.3603938],[6.9260236,50.3604494],[6.9261171,50.3605146],[6.9262784,50.3606188],[6.9264519,50.3607383],[6.9266153,50.3608515],[6.9267819,50.360966],[6.9269517,50.3610818],[6.9271197,50.3611926],[6.9273078,50.3613085],[6.9274766,50.3614086],[6.9276687,50.3615136],[6.9278652,50.361618],[6.9280727,50.3617175],[6.9282682,50.3618201],[6.9284767,50.3619339],[6.928662,50.3620472],[6.9288404,50.3621706],[6.9290146,50.3622947],[6.9291787,50.3624196],[6.9293196,50.3625506],[6.9294527,50.3626834],[6.9295186,50.362742],[6.9295648,50.3628161],[6.9296121,50.3628806],[6.9296551,50.3629429],[6.9297307,50.3630647],[6.9298113,50.3631895],[6.9298823,50.3632985],[6.9299457,50.3634034],[6.9300052,50.3634919],[6.9300589,50.3635741],[6.9301033,50.3636515],[6.930157,50.3637242],[6.930195,50.363788],[6.9302337,50.3638456],[6.9302756,50.3639073],[6.9303279,50.3639865],[6.9303687,50.364053],[6.9303935,50.3641106],[6.930413,50.36417],[6.9304274,50.3642286],[6.9304188,50.364291],[6.9304199,50.3643479],[6.9304134,50.3644042],[6.9304145,50.3644563],[6.9304069,50.3645063],[6.9304016,50.364555],[6.9303995,50.3646055],[6.930398,50.364655],[6.9303952,50.3647104],[6.9303866,50.3647625],[6.9303834,50.364816],[6.9303834,50.3648626],[6.9303823,50.3649113],[6.930378,50.3649682],[6.9303694,50.3650327],[6.9303662,50.3650718],[6.9303688,50.3651233],[6.9303828,50.3651741],[6.9303988,50.3652177],[6.9304135,50.3652622],[6.9304365,50.365305],[6.9304685,50.3653578],[6.9305082,50.3654041],[6.9305459,50.36545],[6.9305843,50.3654869],[6.9306281,50.365526],[6.9306735,50.3655558],[6.9307279,50.3655883],[6.9307787,50.3656156],[6.9308304,50.3656405],[6.930882,50.3656637],[6.9309343,50.3656846],[6.9309881,50.3657064],[6.931046,50.3657287],[6.9311102,50.3657558],[6.9311709,50.3657776],[6.9312253,50.3658003],[6.9312644,50.3658208],[6.9313133,50.365843],[6.9313621,50.3658729],[6.931404,50.3658987],[6.931426,50.365924],[6.9314535,50.3659507],[6.9314933,50.3659895],[6.9315308,50.3660395],[6.9315538,50.3660715],[6.9315762,50.3661023],[6.9315872,50.3661224],[6.931604,50.3661504],[6.9316214,50.3661811],[6.9316349,50.3662189],[6.9316475,50.3662532],[6.931651,50.3662861],[6.9316496,50.3663173],[6.9316384,50.3663471],[6.9316258,50.3663765],[6.9316049,50.3664058],[6.9315812,50.3664379],[6.9315407,50.366469],[6.9314995,50.3665029],[6.9314472,50.3665354],[6.9313872,50.3665727],[6.9313237,50.366615],[6.9312769,50.3666627],[6.9312316,50.3667201],[6.9312065,50.3667788],[6.9311946,50.3668349],[6.9312037,50.3668963],[6.9312246,50.36696],[6.9312651,50.3670187],[6.9313262,50.3670767],[6.9313939,50.3671274],[6.9314685,50.3671755],[6.931555,50.36723],[6.931642,50.367286],[6.931729,50.367341],[6.9318214,50.3673929],[6.9319103,50.3674431],[6.9319961,50.3674947],[6.9321008,50.367545],[6.9321998,50.3675989],[6.9323059,50.3676527],[6.9324217,50.3677066],[6.9325355,50.3677596],[6.9326381,50.3678116],[6.9327571,50.3678697],[6.9328855,50.3679262],[6.933016,50.3679899],[6.9331276,50.368042],[6.9332456,50.3681003],[6.9333726,50.3681621],[6.9334954,50.3682254],[6.9336189,50.368297],[6.9337333,50.3683731],[6.9338429,50.3684515],[6.9339497,50.3685276],[6.9340466,50.3686015],[6.9341546,50.3686829],[6.9342558,50.3687541],[6.9343559,50.3688335],[6.9344577,50.3689114],[6.9345545,50.3689822],[6.9346585,50.3690529],[6.9347712,50.3691259],[6.934872,50.369191],[6.9349679,50.3692506],[6.9350635,50.3693098],[6.9351591,50.3693663],[6.9352574,50.3694269],[6.9353593,50.3694839],[6.9354653,50.3695507],[6.9355553,50.3696067],[6.9356649,50.369674],[6.9357787,50.3697412],[6.9358757,50.3698026],[6.9359892,50.3698706],[6.9361064,50.369944],[6.93623,50.370021],[6.93634,50.370089],[6.936444,50.370156],[6.936535,50.370217],[6.9366183,50.3702809],[6.9366992,50.3703495],[6.9367819,50.3704274],[6.9368615,50.3704977],[6.9369512,50.3705776],[6.9370339,50.3706554],[6.9371163,50.370727],[6.9372008,50.3708045],[6.93729,50.370882],[6.9373706,50.370957],[6.9374578,50.3710371],[6.9375211,50.3711177],[6.9375908,50.3712048],[6.937639,50.371297],[6.937682,50.371392],[6.9377083,50.3714871],[6.9377253,50.3715907],[6.9377246,50.3716886],[6.9377051,50.371795],[6.9376751,50.3718947],[6.9376381,50.3719882],[6.9376008,50.372079],[6.937566,50.3721689],[6.9375262,50.3722681],[6.9374927,50.3723585],[6.9374508,50.3724568],[6.9374181,50.3725449],[6.9373827,50.372635],[6.9373499,50.3727192],[6.9373211,50.3728054],[6.9372904,50.37289],[6.937259,50.372972],[6.9372038,50.373054],[6.9371308,50.3731334],[6.9370527,50.3731904],[6.9369585,50.373238],[6.9368362,50.373276],[6.9367217,50.3733],[6.9365891,50.3733156],[6.9363848,50.3733149],[6.9362501,50.3733087],[6.9361,50.3733031],[6.9359639,50.3732986],[6.9358062,50.3733022],[6.9356583,50.3733209],[6.9355292,50.3733596],[6.9354308,50.3733952],[6.9353119,50.3734394],[6.9351919,50.3734799],[6.9350595,50.3735315],[6.9349241,50.3735836],[6.9348048,50.373625],[6.934694,50.373678],[6.934564,50.3737351],[6.9344363,50.3737934],[6.9343126,50.3738505],[6.934171,50.3739185],[6.9340413,50.3739808],[6.9339101,50.3740444],[6.9337958,50.3741071],[6.9337226,50.3741686],[6.933654,50.374254],[6.9336229,50.3743438],[6.9336221,50.3744393],[6.9336423,50.3745221],[6.9336878,50.3746008],[6.9337778,50.3746734],[6.9338685,50.3747241],[6.9339879,50.374775],[6.9341379,50.3748217],[6.934304,50.3748693],[6.9344617,50.3749236],[6.93463,50.374975],[6.9347989,50.375031],[6.9349606,50.3750854],[6.935119,50.3751397],[6.935274,50.3751935],[6.9354324,50.3752527],[6.9355942,50.3753195],[6.9357219,50.3753786],[6.935857,50.3754507],[6.9359756,50.3755157],[6.9361242,50.3755929],[6.9362567,50.3756663],[6.9364082,50.3757553],[6.9365463,50.375843],[6.9366487,50.3759459],[6.9367277,50.3760622],[6.9367714,50.3761891],[6.93678,50.376312],[6.9367916,50.3764315],[6.9368163,50.3765419],[6.9368759,50.3766485],[6.9369567,50.3767447],[6.9370487,50.3768385],[6.9371382,50.3769292],[6.9372235,50.377016],[6.9373149,50.3771141],[6.9374105,50.3772187],[6.937517,50.3773254],[6.9376126,50.3774184],[6.9377297,50.3775161],[6.9378912,50.3776198],[6.9380381,50.3776908],[6.9382011,50.3777518],[6.9384021,50.377807],[6.9386255,50.3778573],[6.9387415,50.37788],[6.9388566,50.3778876],[6.9390709,50.3778862],[6.9392927,50.3778601],[6.9395,50.3778357],[6.9397023,50.377805],[6.9398831,50.3777551],[6.9400764,50.377691],[6.9402487,50.3776185],[6.9404232,50.3775504],[6.9405941,50.3774819],[6.9407665,50.3774129],[6.940934,50.3773341],[6.9411006,50.3772593],[6.9412668,50.3771852],[6.9414579,50.3770984],[6.9416249,50.3770252],[6.9417958,50.3769504],[6.9419584,50.3768761],[6.9420858,50.3768168],[6.9422383,50.3767414],[6.9423632,50.3766493],[6.9424519,50.3765376],[6.94251,50.3764327],[6.9425616,50.3763329],[6.9425937,50.3762817],[6.9426328,50.376247],[6.942711,50.3761901],[6.942817,50.376146],[6.9429273,50.3761193],[6.9430508,50.3761095],[6.9431443,50.3761206],[6.9432211,50.3761562],[6.943311,50.376227],[6.9433788,50.3763026],[6.9434527,50.3763854],[6.9435649,50.3764907],[6.9436912,50.3765775],[6.943891,50.376627],[6.944071,50.376676],[6.9442639,50.3767014],[6.9444573,50.3767176],[6.944661,50.376733],[6.9448624,50.3767477],[6.9450627,50.3767572],[6.9452767,50.3767653],[6.9454897,50.3767748],[6.9457153,50.3767799],[6.9459399,50.3767899],[6.9461437,50.3767936],[6.9463531,50.3768017],[6.9465649,50.376809],[6.9467732,50.3768164],[6.9469896,50.3768252],[6.947222,50.376833],[6.9474408,50.3768259],[6.9476514,50.3767973],[6.9478574,50.3767686],[6.9480738,50.3767327],[6.9482787,50.3767026],[6.9484974,50.3766688],[6.9487034,50.3766299],[6.9488945,50.3765983],[6.9490967,50.3765692],[6.9492854,50.3765494],[6.9494742,50.3765618],[6.949663,50.376614],[6.949813,50.376694],[6.9499208,50.3767886],[6.9500069,50.3768959],[6.950099,50.3769935],[6.9501939,50.3771012],[6.9502516,50.3771585],[6.9502804,50.3772143],[6.950336,50.3773199],[6.9503682,50.3773833],[6.9503866,50.3774464],[6.9503993,50.3775088],[6.950405,50.3775763],[6.9504073,50.3776438],[6.9504004,50.3777062],[6.9503866,50.3778251],[6.9503716,50.3779367],[6.9503636,50.3780395],[6.9503624,50.3781275],[6.9503786,50.3782002],[6.9504085,50.3782552],[6.9504407,50.3782986],[6.9504844,50.3783367],[6.9505285,50.3783697],[6.9505711,50.3783873],[6.9506091,50.3784086],[6.9506551,50.3784225],[6.9507058,50.3784445],[6.950767,50.378466],[6.950842,50.378489],[6.950913,50.378514],[6.950975,50.378534],[6.951045,50.378552],[6.951107,50.378569],[6.951172,50.378588],[6.95124,50.378611],[6.9513239,50.3786325],[6.9513872,50.3786494],[6.9514539,50.3786677],[6.9515304,50.3786858],[6.9515834,50.3787005],[6.9516328,50.3787122],[6.9516944,50.3787272],[6.9517519,50.3787389],[6.9517956,50.3787522],[6.9518497,50.3787624],[6.9519004,50.3787771],[6.9519614,50.378794],[6.9520063,50.3788065],[6.9520615,50.3788175],[6.9521313,50.3788334],[6.952181,50.378847],[6.9522347,50.3788545],[6.952283,50.378869],[6.952354,50.3788848],[6.9524085,50.3788998],[6.9524627,50.3789109],[6.952527,50.378925],[6.9526102,50.3789461],[6.952684,50.3789606],[6.9527439,50.3789725],[6.9528101,50.3789905],[6.9528749,50.3790015],[6.95295,50.37902],[6.953021,50.379033],[6.9530907,50.3790472],[6.9531784,50.379069],[6.9532611,50.379084],[6.953341,50.3791],[6.9534334,50.3791174],[6.953543,50.3791345],[6.953633,50.379154],[6.9537354,50.3791723],[6.9538271,50.3791868],[6.9539381,50.3792088],[6.9540552,50.379226],[6.9541847,50.3792494],[6.9543247,50.3792697],[6.954449,50.379285],[6.954568,50.379306],[6.9546845,50.3793175],[6.954812,50.3793364],[6.9549265,50.3793504],[6.9550368,50.3793641],[6.9551379,50.379379],[6.955249,50.379393],[6.9553385,50.3794071],[6.9554425,50.3794208],[6.955539,50.3794348],[6.9556293,50.3794463],[6.9557162,50.3794568],[6.9558155,50.3794713],[6.9559051,50.3794832],[6.9560002,50.3794959],[6.9561022,50.3795087],[6.9561974,50.3795232],[6.9562877,50.3795329],[6.9563835,50.3795465],[6.9564891,50.3795628],[6.9565911,50.3795777],[6.9566987,50.3795913],[6.9567981,50.3796042],[6.9568877,50.3796152],[6.956998,50.3796301],[6.9571104,50.3796468],[6.9572028,50.37966],[6.957302,50.3796807],[6.9573984,50.3796959],[6.9575087,50.3797228],[6.9575976,50.3797535],[6.9576845,50.3797861],[6.9577741,50.3798221],[6.9578589,50.3798608],[6.9579416,50.3799034],[6.9580419,50.3799562],[6.9581432,50.3800023],[6.958239,50.3800511],[6.9583466,50.3800955],[6.9584423,50.3801434],[6.9585471,50.3801962],[6.9586522,50.3802453],[6.9587508,50.3802945],[6.9588606,50.3803465],[6.9589654,50.3803962],[6.9590702,50.3804472],[6.959182,50.380494],[6.959287,50.380546],[6.959394,50.3806],[6.959507,50.3806513],[6.959615,50.3807029],[6.9597329,50.3807525],[6.9598495,50.3808015],[6.9599701,50.3808481],[6.9600887,50.3808776],[6.96017,50.3808886],[6.9602548,50.3808987],[6.960389,50.3809073],[6.96054,50.3809139],[6.9606792,50.3809003],[6.960815,50.3808739],[6.960923,50.380832],[6.96103,50.380779],[6.961108,50.380716],[6.961172,50.380652],[6.96121,50.380576],[6.961241,50.380504],[6.961265,50.380435],[6.961287,50.380367],[6.961308,50.380301],[6.961331,50.380232],[6.961345,50.380175],[6.961357,50.38012],[6.961368,50.380066],[6.9613767,50.3800116],[6.9613781,50.3799628],[6.9613823,50.3799135],[6.9613758,50.3798661],[6.9613703,50.3798222],[6.9613655,50.379776],[6.9613621,50.3797356],[6.9613545,50.3796899],[6.9613483,50.3796494],[6.9613455,50.3796121],[6.9613393,50.3795672],[6.9613317,50.3795321],[6.9613283,50.3794969],[6.96132,50.3794564],[6.9613166,50.3794248],[6.9613145,50.3793931],[6.9613083,50.3793588],[6.9613035,50.3793237],[6.961299,50.379289],[6.961291,50.379252],[6.9612872,50.3792147],[6.9612797,50.3791761],[6.9612748,50.3791374],[6.9612686,50.3790965],[6.9612638,50.3790622],[6.9612611,50.3790319],[6.9612548,50.3789998],[6.9612548,50.3789664],[6.961248,50.3789272],[6.9612473,50.378885],[6.9612466,50.3788446],[6.9612459,50.3788037],[6.9612452,50.3787624],[6.9612424,50.3787294],[6.9612452,50.3786964],[6.9612414,50.3786625],[6.9612467,50.3786252],[6.9612487,50.3785867],[6.9612493,50.3785528],[6.9612507,50.3785201],[6.9612514,50.3784828],[6.961256,50.3784455],[6.9612573,50.3784103],[6.9612616,50.3783708],[6.9612636,50.378339],[6.9612696,50.3782898],[6.9612709,50.3782504],[6.9612775,50.378211],[6.9612815,50.3781767],[6.9612822,50.3781436],[6.9612868,50.3781144],[6.9612888,50.3780817],[6.9612935,50.3780516],[6.9612942,50.3780181],[6.9612968,50.3779885],[6.9612995,50.3779533],[6.9613041,50.3779211],[6.9613061,50.3778867],[6.9613081,50.3778469],[6.9613128,50.3777999],[6.9613134,50.3777655],[6.9613161,50.3777291],[6.9613207,50.3776913],[6.9613234,50.3776634],[6.9613274,50.3776312],[6.9613309,50.3776035],[6.9613366,50.3775725],[6.9613438,50.3775448],[6.9613466,50.3775139],[6.9613509,50.3774835],[6.9613563,50.377457],[6.9613579,50.3774339],[6.9613655,50.3774084],[6.9613738,50.3773781],[6.9613808,50.3773505],[6.9613868,50.3773212],[6.9613933,50.3772929],[6.9614046,50.3772605],[6.9614144,50.3772301],[6.9614284,50.3771946],[6.9614425,50.3771656],[6.9614528,50.3771353],[6.9614636,50.3771036],[6.9614809,50.3770739],[6.9614919,50.3770446],[6.9615136,50.3770122],[6.9615239,50.376987],[6.9615395,50.3769601],[6.961566,50.3769158],[6.9615833,50.3768807],[6.9615996,50.3768506],[6.9616212,50.3768096],[6.9616385,50.3767782],[6.9616574,50.3767399],[6.961678,50.3767061],[6.961698,50.3766701],[6.9617191,50.376637],[6.961745,50.3766011],[6.9617618,50.3765769],[6.9617764,50.3765512],[6.9617974,50.3765186],[6.9618203,50.3764844],[6.9618441,50.3764521],[6.9618729,50.3764217],[6.9618991,50.3763863],[6.9619318,50.3763528],[6.9619697,50.3763152],[6.9620126,50.3762751],[6.9620545,50.3762388],[6.962098,50.3762],[6.962147,50.376163],[6.962192,50.376126],[6.962237,50.376093],[6.962282,50.37606],[6.962328,50.376027],[6.962376,50.375993],[6.962423,50.375963],[6.9624637,50.375928],[6.962508,50.3759],[6.962553,50.375872],[6.9626025,50.3758342],[6.962647,50.375806],[6.962693,50.375779],[6.962733,50.3757474],[6.9627739,50.3757191],[6.9628187,50.3756933],[6.9628616,50.3756713],[6.9629039,50.3756455],[6.9629463,50.375626],[6.962996,50.375599],[6.9630439,50.3755765],[6.9630848,50.3755573],[6.9631267,50.3755374],[6.9631719,50.3755166],[6.9632153,50.3754992],[6.963265,50.37548],[6.9633165,50.3754591],[6.9633662,50.3754383],[6.9634144,50.3754178],[6.9634621,50.3753983],[6.9635113,50.375375],[6.9635615,50.3753533],[6.9636073,50.3753349],[6.96366,50.375314],[6.963701,50.375295],[6.9637514,50.375275],[6.963795,50.375258],[6.963852,50.375235],[6.963905,50.375214],[6.963963,50.375194],[6.9640163,50.3751772],[6.9640718,50.3751598],[6.9641185,50.3751455],[6.9641794,50.3751306],[6.9642339,50.3751135],[6.9642923,50.375098],[6.9643527,50.3750819],[6.9643989,50.3750707],[6.9644535,50.3750564],[6.9645085,50.3750421],[6.9645679,50.3750253],[6.9646185,50.3750129],[6.9646677,50.3749986],[6.9647228,50.374985],[6.9647671,50.3749726],[6.9648221,50.3749586],[6.9648747,50.3749449],[6.9649372,50.3749277],[6.9649996,50.3749125],[6.9650687,50.374893],[6.9651227,50.3748799],[6.9651826,50.3748631],[6.9652546,50.3748436],[6.9653239,50.374824],[6.965391,50.3748057],[6.9654691,50.3747875],[6.9655462,50.3747678],[6.9656177,50.3747475],[6.9657002,50.3747271],[6.9657728,50.3747082],[6.9658575,50.3746864],[6.9659489,50.3746598],[6.9660314,50.374638],[6.9660952,50.3746198],[6.96617,50.3746014],[6.9662334,50.374587],[6.9663105,50.3745639],[6.9663853,50.374548],[6.9664668,50.3745277],[6.9665394,50.3745118],[6.9666005,50.3744988],[6.9666821,50.3744844],[6.9667546,50.3744728],[6.9668226,50.3744642],[6.9669087,50.3744598],[6.9669744,50.3744526],[6.9670424,50.3744515],[6.9670996,50.374448],[6.9671656,50.3744473],[6.9672228,50.3744487],[6.9672954,50.3744494],[6.9673714,50.3744515],[6.9674429,50.3744529],[6.967521,50.374455],[6.9676057,50.3744571],[6.9676684,50.3744592],[6.9677333,50.3744592],[6.9678104,50.374462],[6.9678764,50.3744606],[6.9679435,50.3744641],[6.9680007,50.3744649],[6.9680601,50.3744663],[6.9681162,50.374467],[6.9681723,50.374467],[6.968234,50.3744712],[6.9683198,50.3744754],[6.9684023,50.3744747],[6.9684859,50.3744789],[6.968575,50.3744782],[6.9686609,50.3744831],[6.968739,50.3744838],[6.968826,50.374486],[6.96889,50.374487],[6.968933,50.374486],[6.9689777,50.3744894],[6.969033,50.37449],[6.9690905,50.3744891],[6.9691586,50.3744933],[6.9692164,50.3744896],[6.9692771,50.3744896],[6.9693335,50.3744905],[6.9693796,50.3744877],[6.9694367,50.3744854],[6.9694883,50.3744817],[6.9695366,50.3744775],[6.9695871,50.3744737],[6.9696354,50.3744714],[6.9696845,50.3744672],[6.969731,50.374466],[6.969781,50.374462],[6.969828,50.374457],[6.969874,50.374454],[6.9699237,50.3744519],[6.9699691,50.3744473],[6.9700167,50.3744449],[6.9700657,50.3744403],[6.9701082,50.374437],[6.9701528,50.3744337],[6.9701975,50.37443],[6.970245,50.3744281],[6.9702889,50.3744258],[6.9703307,50.3744239],[6.9703753,50.3744211],[6.9704156,50.3744155],[6.9704624,50.3744141],[6.9705041,50.3744127],[6.9705444,50.374409],[6.970592,50.3744053],[6.9706381,50.3744006],[6.9706834,50.3743964],[6.970731,50.3743941],[6.9707727,50.3743889],[6.9708189,50.374388],[6.9708745,50.3743833],[6.970933,50.374379],[6.9710009,50.3743707],[6.9710536,50.374367],[6.9711056,50.3743637],[6.9711583,50.37436],[6.971208,50.3743572],[6.9712732,50.374353],[6.9713251,50.3743511],[6.9713691,50.3743479],[6.9714174,50.3743455],[6.9714605,50.3743404],[6.971507,50.374339],[6.971553,50.374335],[6.971599,50.37433],[6.971644,50.374326],[6.9716896,50.3743227],[6.9717357,50.3743194],[6.9717804,50.3743175],[6.9718258,50.3743128],[6.9718763,50.3743086],[6.9719334,50.374303],[6.9719948,50.3743002],[6.9720446,50.3742979],[6.972109,50.3742951],[6.9721756,50.374289],[6.9722459,50.3742839],[6.9723184,50.3742802],[6.9723828,50.3742746],[6.9724464,50.3742694],[6.9725216,50.3742643],[6.9725955,50.3742582],[6.9726746,50.3742526],[6.9727521,50.3742447],[6.9728261,50.3742354],[6.9729044,50.3742256],[6.972982,50.3742158],[6.973058,50.3742045],[6.9731261,50.3741933],[6.9732,50.374179],[6.9732783,50.3741672],[6.973341,50.374155],[6.973405,50.374143],[6.973466,50.374133],[6.973516,50.374124],[6.973577,50.374115],[6.9736532,50.3740987],[6.9737168,50.3740886],[6.9737838,50.3740779],[6.9738482,50.3740667],[6.9739194,50.3740555],[6.9739997,50.3740378],[6.9740688,50.374026],[6.9741442,50.374011],[6.9742112,50.3739972],[6.9742781,50.3739897],[6.9743484,50.3739769],[6.9744229,50.3739619],[6.9744916,50.3739459],[6.9745661,50.3739326],[6.9746459,50.3739181],[6.9747153,50.3739074],[6.9747865,50.3738919],[6.9748359,50.3738839],[6.9749146,50.3738717],[6.9749799,50.3738583],[6.9750569,50.3738434],[6.9751326,50.3738283],[6.9751929,50.3738118],[6.9752648,50.3737958],[6.9753352,50.3737739],[6.9754072,50.3737525],[6.9754721,50.3737323],[6.975534,50.3737114],[6.9756052,50.3736933],[6.9756679,50.3736655],[6.9757408,50.373642],[6.9758026,50.3736148],[6.9758729,50.3735881],[6.9759324,50.3735625],[6.9759951,50.3735353],[6.9760588,50.3735075],[6.9761194,50.3734775],[6.9761722,50.373454],[6.976219,50.3734267],[6.9762735,50.3733995],[6.9763447,50.3733619],[6.9763966,50.3733299],[6.9764661,50.3732931],[6.9765188,50.3732605],[6.9765833,50.3732274],[6.9766369,50.3731959],[6.9766913,50.3731671],[6.9767541,50.3731324],[6.9768126,50.3730993],[6.9768794,50.3730669],[6.9769313,50.3730439],[6.9769774,50.373022],[6.9770217,50.3730023],[6.9770745,50.3729777],[6.9771188,50.3729579],[6.9771741,50.3729318],[6.977239,50.372906],[6.9772821,50.372888],[6.9773449,50.3728666],[6.977411,50.3728383],[6.977478,50.3728175],[6.977546,50.372791],[6.9776144,50.3727652],[6.9776872,50.3727444],[6.9777626,50.3727236],[6.9778354,50.3727011],[6.9779049,50.3726776],[6.9779777,50.3726568],[6.9780506,50.3726349],[6.9781243,50.3726147],[6.978196,50.372596],[6.978266,50.372569],[6.978335,50.372551],[6.9784039,50.3725277],[6.9784524,50.3725127],[6.9785127,50.372494],[6.9785889,50.3724722],[6.9786558,50.3724513],[6.9787379,50.3724278],[6.9788065,50.3724086],[6.9788752,50.372391],[6.9789396,50.3723734],[6.9790024,50.3723542],[6.9790694,50.3723376],[6.9791271,50.3723179],[6.9791958,50.3723013],[6.9792686,50.3722864],[6.9793473,50.3722714],[6.9794201,50.3722618],[6.9794955,50.3722554],[6.9795641,50.3722527],[6.9796445,50.3722527],[6.9797056,50.3722538],[6.9797834,50.372257],[6.9798722,50.3722623],[6.9799383,50.3722661],[6.9800044,50.3722714],[6.9800639,50.372281],[6.98014,50.3722896],[6.9802062,50.3722949],[6.980269,50.3723013],[6.9803351,50.3723104],[6.9803912,50.3723163],[6.9804523,50.3723237],[6.9805142,50.3723339],[6.9805862,50.372346],[6.9806464,50.3723614],[6.9807092,50.3723785],[6.9807749,50.3723972],[6.9808302,50.3724153],[6.9809038,50.3724393],[6.9809728,50.372461],[6.9810356,50.3724808],[6.9810866,50.3724968],[6.9811503,50.3725176],[6.9812344,50.3725451],[6.9813114,50.3725708],[6.9813801,50.3725932],[6.9814584,50.3726224],[6.9815237,50.3726475],[6.9815856,50.3726726],[6.9816609,50.3726961],[6.9817154,50.3727158],[6.9817748,50.3727372],[6.9818384,50.3727586],[6.9818987,50.3727772],[6.9819724,50.3728024],[6.9820193,50.3728237],[6.9820854,50.3728472],[6.9821373,50.3728696],[6.9822035,50.3728969],[6.9822554,50.3729166],[6.9823031,50.3729353],[6.9823617,50.3729593],[6.9824237,50.3729904],[6.9824882,50.3730177],[6.9825334,50.3730406],[6.982592,50.3730673],[6.982651,50.3730944],[6.982711,50.373122],[6.982766,50.373154],[6.982831,50.373185],[6.9828737,50.373206],[6.9829264,50.3732316],[6.9829624,50.3732492],[6.9829967,50.3732652],[6.9830302,50.3732818],[6.9830838,50.3733106],[6.9831536,50.3733454],[6.9832189,50.3733753],[6.9832683,50.373402],[6.983321,50.373425],[6.983383,50.373457],[6.9835151,50.3735227],[6.9835787,50.3735521],[6.9836147,50.3735745],[6.9836768,50.3736078],[6.9837162,50.3736287],[6.9837455,50.3736479],[6.9837823,50.373666],[6.9838191,50.3736852],[6.9838539,50.3737056],[6.9838924,50.3737313],[6.9839351,50.3737542],[6.9839795,50.3737788],[6.9840314,50.3738119],[6.9840737,50.3738385],[6.9841156,50.3738609],[6.9841566,50.373886],[6.9841993,50.3739111],[6.9842353,50.3739351],[6.9842805,50.3739591],[6.9843257,50.3739832],[6.9843667,50.3740104],[6.9844161,50.3740339],[6.9844638,50.3740574],[6.9845182,50.3740771],[6.9845752,50.3741001],[6.9846304,50.3741241],[6.984694,50.3741439],[6.984756,50.374159],[6.984815,50.374176],[6.984884,50.374192],[6.984958,50.374206],[6.9850314,50.3742215],[6.9851059,50.3742316],[6.9851678,50.3742364],[6.9852164,50.3742455],[6.9852708,50.3742493],[6.985321,50.3742573],[6.9853654,50.3742621],[6.9854148,50.3742674],[6.9854566,50.3742727],[6.985504,50.374275],[6.985547,50.3742818],[6.985592,50.374289],[6.9856433,50.3742904],[6.9857094,50.374301],[6.9858024,50.3743101],[6.9858752,50.3743171],[6.9859564,50.3743251],[6.9860108,50.3743293],[6.9860602,50.3743341],[6.9861355,50.3743406],[6.9862134,50.3743518],[6.9862979,50.3743603],[6.9863485,50.3743678],[6.9864197,50.3743763],[6.9864975,50.3743827],[6.9865746,50.3743897],[6.9866587,50.3743971],[6.9867123,50.3744025],[6.9867868,50.3744126],[6.9868329,50.3744153],[6.9868998,50.3744238],[6.986981,50.3744318],[6.9870605,50.3744377],[6.9871304,50.3744433],[6.9871991,50.3744497],[6.9872727,50.3744561],[6.9873506,50.3744609],[6.9874309,50.3744657],[6.9875113,50.3744721],[6.9875792,50.3744821],[6.9876528,50.3744912],[6.9877231,50.3745013],[6.9877784,50.3745099],[6.9878186,50.3745173],[6.9878671,50.374528],[6.9878998,50.3745355],[6.9879433,50.374543],[6.987995,50.374549],[6.988041,50.374561],[6.9880925,50.3745681],[6.9881402,50.3745803],[6.9881871,50.3745889],[6.9882382,50.3745948],[6.9882951,50.3746054],[6.9883478,50.3746134],[6.9883964,50.3746257],[6.9884474,50.3746321],[6.988496,50.374641],[6.988543,50.374646],[6.988598,50.374652],[6.988659,50.374655],[6.988715,50.374655],[6.988769,50.374654],[6.988823,50.374647],[6.988876,50.374636],[6.988928,50.374623],[6.988976,50.37461],[6.989021,50.374589],[6.9890671,50.3745655],[6.9891149,50.3745409],[6.9891592,50.3745142],[6.9891877,50.3744876],[6.9892212,50.374455],[6.9892446,50.3744262],[6.9892697,50.3743909],[6.9892884,50.3743505],[6.9892951,50.3743065],[6.9892976,50.3742659],[6.9892951,50.3742259],[6.9892859,50.3741821],[6.9892792,50.3741378],[6.9892674,50.374094],[6.9892532,50.3740476],[6.9892331,50.3740091],[6.989208,50.3739712],[6.9891812,50.3739344],[6.9891528,50.3738975],[6.9891235,50.3738644],[6.9890849,50.3738271],[6.9890406,50.3737993],[6.9889895,50.3737689],[6.9889435,50.3737448],[6.9888983,50.3737171],[6.9888489,50.3736904],[6.988802,50.373668],[6.988756,50.3736439],[6.9887082,50.3736205],[6.988658,50.3735927],[6.9886153,50.3735649],[6.9885626,50.3735398],[6.9885224,50.373519],[6.9884714,50.3734951],[6.9884371,50.3734759],[6.9884011,50.373455],[6.9883559,50.3734316],[6.9883132,50.3734118],[6.9882613,50.3733888],[6.9882127,50.3733648],[6.98816,50.3733387],[6.9881106,50.3733136],[6.9880566,50.37329],[6.9880132,50.3732693],[6.987973,50.373254],[6.9879367,50.3732385],[6.9879124,50.3732247],[6.9878786,50.3732101],[6.9878406,50.373192],[6.9878074,50.3731804],[6.9877736,50.3731654],[6.987741,50.3731489],[6.9877025,50.3731295],[6.9876687,50.3731102],[6.9876373,50.3730937],[6.9876023,50.3730725],[6.9875606,50.3730515],[6.9875262,50.3730311],[6.9875033,50.3730168],[6.9874773,50.3729995],[6.9874514,50.3729779],[6.9874236,50.3729637],[6.9874007,50.3729467],[6.9873753,50.3729313],[6.9873458,50.3729109],[6.9873077,50.3728859],[6.9872679,50.372864],[6.9872256,50.372844],[6.9871918,50.3728236],[6.9871354,50.3727917],[6.987089,50.3727636],[6.9870358,50.3727428],[6.986996,50.3727251],[6.9869495,50.3727086],[6.9869036,50.3726901],[6.9868729,50.3726743],[6.9868318,50.3726581],[6.9867938,50.3726431],[6.986757,50.3726239],[6.9867111,50.3726015],[6.9866447,50.3725696],[6.9866,50.3725473],[6.9865626,50.3725295],[6.9865276,50.3725103],[6.9864902,50.3724957],[6.9864552,50.3724768],[6.986412,50.372456],[6.9863749,50.372436],[6.9863073,50.3724056],[6.9862397,50.3723809],[6.9861992,50.3723621],[6.9861576,50.3723463],[6.9861123,50.3723301],[6.9860651,50.3723135],[6.9860216,50.3722969],[6.9859818,50.3722842],[6.9859359,50.3722711],[6.9858907,50.3722546],[6.98584,50.3722377],[6.9857856,50.3722188],[6.9857506,50.3722034],[6.9857088,50.3721871],[6.9856533,50.3721617],[6.9856183,50.3721336],[6.9855833,50.3720982],[6.9855542,50.3720617],[6.9855361,50.3720268],[6.9855216,50.3719874],[6.9855119,50.3719432],[6.985518,50.3719005],[6.9855324,50.3718539],[6.9855548,50.3718116],[6.9855874,50.3717715],[6.9856369,50.3717295],[6.9856979,50.3716964],[6.9857733,50.3716675],[6.9858451,50.3716483],[6.9859224,50.3716379],[6.9860081,50.371636],[6.9860812,50.3716391],[6.986153,50.3716572],[6.9862182,50.3716733],[6.9862858,50.3717014],[6.9863508,50.3717401],[6.9864025,50.371786],[6.9864414,50.3718433],[6.9864764,50.3719055],[6.986513,50.3719692],[6.9865486,50.3720281],[6.986591,50.372087],[6.9866369,50.3721442],[6.9866876,50.3722021],[6.9867576,50.3722572],[6.9867995,50.3722866],[6.9868405,50.3723131],[6.9868882,50.3723376],[6.9869328,50.3723635],[6.987026,50.3724125],[6.987135,50.3724687],[6.9872395,50.3725195],[6.9873466,50.372577],[6.9874522,50.3726295],[6.9875638,50.3726813],[6.9876622,50.372724],[6.9877648,50.3727563],[6.9878702,50.3727833],[6.9879775,50.3728096],[6.9880924,50.3728342],[6.9882041,50.372856],[6.988317,50.3728815],[6.9884348,50.3729068],[6.9885558,50.372928],[6.988669,50.372951],[6.9887882,50.372977],[6.9888833,50.3729958],[6.9889953,50.3730196],[6.9890958,50.3730392],[6.9891868,50.3730599],[6.9892825,50.3730764],[6.9893668,50.373096],[6.9894472,50.3731143],[6.9895286,50.373132],[6.9896119,50.373146],[6.9896923,50.3731644],[6.989769,50.373183],[6.989845,50.373196],[6.989926,50.37321],[6.990002,50.373225],[6.990074,50.37324],[6.990148,50.373256],[6.9902266,50.3732633],[6.9902917,50.3732755],[6.9903539,50.3732822],[6.990419,50.3732889],[6.9904841,50.3732938],[6.9905406,50.3732993],[6.9905971,50.3733066],[6.9906564,50.3733115],[6.9907091,50.3733158],[6.9907599,50.3733207],[6.9908108,50.3733243],[6.9908511,50.3733268],[6.9908999,50.3733262],[6.990942,50.3733292],[6.9909851,50.3733298],[6.9910224,50.3733335],[6.991106,50.373329],[6.991164,50.373336],[6.991228,50.373343],[6.991294,50.373347],[6.991368,50.373355],[6.991439,50.373369],[6.99151,50.373376],[6.991584,50.373385],[6.991651,50.373399],[6.991709,50.3734172],[6.9917618,50.3734417],[6.9918181,50.3734634],[6.9918751,50.3734867],[6.9919271,50.3735095],[6.9919932,50.3735436],[6.9920494,50.3735734],[6.9921065,50.3736011],[6.9921763,50.3736334],[6.9922223,50.3736605],[6.9922811,50.3736882],[6.992331,50.3737166],[6.9923812,50.3737438],[6.9924366,50.3737693],[6.992486,50.3737965],[6.9925396,50.3738258],[6.9925831,50.3738503],[6.9926384,50.3738747],[6.9926939,50.3739001],[6.99275,50.373932],[6.9928141,50.3739634],[6.9928729,50.3739938],[6.992918,50.374021],[6.9929606,50.3740443],[6.993003,50.374074],[6.993051,50.374104],[6.993102,50.37414],[6.993153,50.37418],[6.993203,50.374217],[6.993246,50.37425],[6.993286,50.374282],[6.993324,50.374315],[6.993362,50.374346],[6.9934,50.374377],[6.9934349,50.3744148],[6.9934732,50.3744523],[6.9935098,50.3744805],[6.9935442,50.374515],[6.9935757,50.3745509],[6.9936115,50.3745818],[6.9936396,50.3746122],[6.9936694,50.3746399],[6.9936958,50.374666],[6.9937239,50.3746899],[6.9937495,50.3747214],[6.993778,50.374743],[6.9938031,50.3747719],[6.9938321,50.3748034],[6.9938576,50.3748344],[6.993878,50.3748694],[6.9939044,50.3749052],[6.9939243,50.3749498],[6.9939337,50.3749873],[6.9939388,50.3750252],[6.9939413,50.3750616],[6.9939396,50.3750893],[6.993932,50.3751208],[6.9939269,50.3751555],[6.9939218,50.3751853],[6.9939133,50.3752233],[6.9939057,50.3752559],[6.9938912,50.3752955],[6.9938778,50.375337],[6.9938641,50.3753707],[6.9938565,50.3754033],[6.9938463,50.375437],[6.9938334,50.3754734],[6.9938206,50.375506],[6.9938087,50.3755429],[6.9938036,50.3755673],[6.9938002,50.3755869],[6.9937964,50.3756084],[6.9937878,50.3756418],[6.9937895,50.375667],[6.9937891,50.3756928],[6.9937921,50.3757224],[6.9937964,50.3757656],[6.9938079,50.3758023],[6.9938236,50.3758416],[6.9938492,50.3758832],[6.9938743,50.3759169],[6.9939042,50.3759467],[6.993933,50.3759783],[6.9939642,50.3760063],[6.9939907,50.376032],[6.9940276,50.3760688],[6.9940698,50.3761063],[6.994105,50.3761416],[6.9941511,50.3761842],[6.9941788,50.3762111],[6.9942062,50.3762371],[6.9942397,50.3762705],[6.994272,50.376299],[6.9943031,50.3763267],[6.9943296,50.3763532],[6.9943613,50.3763855],[6.994405,50.376426],[6.9944535,50.3764668],[6.9944939,50.3765105],[6.994525,50.376533],[6.9945486,50.3765605],[6.9945729,50.3765841],[6.9946063,50.3766193],[6.99465,50.376656],[6.9946772,50.3766837],[6.994715,50.376714],[6.9947529,50.376746],[6.9948077,50.3767821],[6.994867,50.3768181],[6.9949267,50.3768431],[6.9949861,50.3768636],[6.9950385,50.3768809],[6.9951296,50.3769052],[6.9952172,50.3769188],[6.9952938,50.3769283],[6.9953647,50.3769338],[6.9954581,50.3769349],[6.9955384,50.3769274],[6.995626,50.3769182],[6.9957032,50.376905],[6.9957897,50.3768851],[6.9958603,50.3768667],[6.9959399,50.3768406],[6.9960286,50.3768109],[6.9961058,50.3767859],[6.9962009,50.3767546],[6.9963047,50.3767183],[6.9964096,50.3766848],[6.9965104,50.3766499],[6.9966142,50.3766168],[6.9967288,50.3765852],[6.9968438,50.376564],[6.9969763,50.3765427],[6.9971043,50.3765254],[6.9972424,50.3765057],[6.9973623,50.3764903],[6.9975444,50.3764657],[6.9976879,50.376444],[6.9978331,50.3764205],[6.997992,50.376392],[6.9981391,50.3763624],[6.9982884,50.3763333],[6.9984452,50.3763017],[6.9985956,50.376272],[6.9987368,50.3762451],[6.9988601,50.3762194],[6.999002,50.3761776],[6.9991132,50.3761467],[6.9992354,50.3760912],[6.9993432,50.3760379],[6.9994625,50.3759696],[6.9995609,50.3758999],[6.9996543,50.3758176],[6.9997511,50.3757213],[6.9998358,50.3756356],[6.9999361,50.375538],[7.0000516,50.3754454],[7.0001548,50.3753719],[7.0002776,50.3753098],[7.0004188,50.3752536],[7.0005813,50.3751995],[7.0007444,50.3751551],[7.0009086,50.3751146],[7.0009945,50.3750966],[7.0010781,50.3750878],[7.0012331,50.3750819],[7.0014031,50.375076],[7.0015593,50.3750731],[7.0017091,50.3750602],[7.0018953,50.3750257],[7.0020485,50.3749702],[7.0021591,50.3749118],[7.0022787,50.3748339],[7.0023963,50.3747486],[7.0025283,50.374656],[7.00267,50.3745531],[7.0028066,50.3744479],[7.0029484,50.3743509],[7.0030738,50.3742591],[7.003203,50.3741597],[7.0033133,50.374074],[7.0034165,50.3739891],[7.0034919,50.3739189],[7.0035576,50.373841],[7.0036231,50.3737475],[7.003664,50.3736552],[7.0036742,50.3735718],[7.0036759,50.3735001],[7.0036719,50.3734112],[7.0036513,50.3733341],[7.0036265,50.3732661],[7.0035813,50.3731873],[7.0035243,50.3731072],[7.0034632,50.3730307],[7.0033998,50.3729558],[7.0033324,50.3728646],[7.003273,50.3727812],[7.0032026,50.3726847],[7.0031297,50.3725743],[7.003075,50.3724658],[7.0030185,50.3723629],[7.0029603,50.3722453],[7.0029079,50.3721405],[7.0028595,50.3720383],[7.0028152,50.3719281],[7.0027968,50.3718704],[7.002791,50.3718082],[7.0027989,50.3717403],[7.0028156,50.3716822],[7.0028416,50.3716315],[7.0028623,50.3715981],[7.0029044,50.371554],[7.0029471,50.3715216],[7.0029891,50.371486],[7.0031122,50.3714053],[7.0032424,50.3713159],[7.003383,50.3712251],[7.003462,50.3711902],[7.0035536,50.3711461],[7.0036378,50.3711196],[7.0037277,50.3710844],[7.0037801,50.3710656],[7.0038948,50.3710373],[7.0040101,50.3710164],[7.0041351,50.3709987],[7.004301,50.3709793],[7.0044664,50.3709609],[7.0046439,50.3709403],[7.0048231,50.3709176],[7.0049298,50.3708926],[7.0050145,50.370869],[7.0050928,50.3708334],[7.0051758,50.3707852],[7.0052427,50.3707334],[7.0052928,50.3706742],[7.0053338,50.3706128],[7.0053557,50.3705514],[7.0053667,50.3704774],[7.0053765,50.3704012],[7.0053876,50.3703313],[7.0053997,50.3702633],[7.0054102,50.3701936],[7.0054222,50.3701208],[7.0054325,50.3700565],[7.0054413,50.3699786],[7.0054627,50.3698562],[7.005484,50.3697311],[7.0055019,50.3696042],[7.0055238,50.3694873],[7.005535,50.3693747],[7.0055592,50.3692652],[7.0055498,50.3691558],[7.0055179,50.3690594],[7.0054453,50.3689738],[7.0053642,50.3688977],[7.0052807,50.368841],[7.0051887,50.3687977],[7.0050912,50.3687582],[7.0049851,50.3687293],[7.0048821,50.3687119],[7.0047932,50.3687034],[7.0047012,50.3686955],[7.004606,50.368695],[7.0045096,50.3686962],[7.0044067,50.3686982],[7.0043045,50.3687022],[7.0041992,50.3687047],[7.004095,50.368707],[7.003989,50.368712],[7.003879,50.368714],[7.0037753,50.368719],[7.0036692,50.3687205],[7.0035542,50.3687238],[7.0034279,50.3687318],[7.0033132,50.3687403],[7.0032071,50.3687487],[7.0030844,50.3687542],[7.0029721,50.3687631],[7.0028676,50.3687696],[7.0027373,50.3687786],[7.0026174,50.3687838],[7.0024981,50.3687898],[7.0024006,50.3687992],[7.002307,50.3688047],[7.0022095,50.3688126],[7.0020975,50.3688136],[7.0020036,50.3688087],[7.0019315,50.3688022],[7.0018706,50.3687965],[7.0018093,50.3687847],[7.0017535,50.3687715],[7.0016861,50.3687531],[7.0016371,50.3687359],[7.0015846,50.3687141],[7.0015307,50.3686893],[7.0014869,50.3686629],[7.001447,50.3686313],[7.001409,50.368596],[7.0013741,50.3685612],[7.0013457,50.368528],[7.0013303,50.368494],[7.0013116,50.3684586],[7.0012986,50.3684177],[7.0012861,50.3683834],[7.0012689,50.3683369],[7.0012459,50.3682911],[7.0012294,50.3682507],[7.0012129,50.3682087],[7.0011964,50.3681759],[7.0011753,50.3681393],[7.0011536,50.3681044],[7.0011305,50.3680708],[7.001099,50.368038],[7.00107,50.368],[7.001033,50.36796],[7.000993,50.367922],[7.000948,50.367883],[7.000902,50.367848],[7.000853,50.367809],[7.0008023,50.3677682],[7.0007516,50.3677249],[7.0006909,50.3676786],[7.0006323,50.3676235],[7.0005637,50.3675727],[7.0005077,50.367523],[7.0004391,50.3674697],[7.0003765,50.3674175],[7.000307,50.367366],[7.000248,50.36731],[7.0001598,50.367236],[7.000084,50.3671734],[7.0000141,50.3670973],[6.9999555,50.3670224],[6.999906,50.366939],[6.999837,50.366851],[6.999772,50.366761],[6.999715,50.36667],[6.999662,50.366576],[6.999611,50.366482],[6.999562,50.366387],[6.999519,50.366287],[6.999486,50.366179],[6.9994938,50.3660649],[6.9995136,50.3659438],[6.9995419,50.3658239],[6.9995627,50.3657111],[6.9995895,50.3655933],[6.999607,50.365478],[6.999632,50.365365],[6.9996279,50.3653085],[6.9996233,50.3652462],[6.9996194,50.3651386],[6.9996068,50.365034],[6.9995985,50.3649324],[6.9995853,50.3648315],[6.9995866,50.3647246],[6.9995947,50.364613],[6.9996053,50.3645031],[6.9996099,50.3643879],[6.999624,50.3642705],[6.9996299,50.3641801],[6.9996378,50.3640884],[6.9996477,50.3639914],[6.9996338,50.3638998],[6.9996181,50.3638212],[6.9995686,50.3637384],[6.9994913,50.3636611],[6.9994209,50.3635954],[6.9993368,50.3635357],[6.9992703,50.3634876],[6.9992074,50.3634359],[6.9991385,50.3633861],[6.999072,50.363336],[6.9990034,50.3632941],[6.9989376,50.3632508],[6.9988725,50.3632157],[6.9987958,50.3631816],[6.9987185,50.3631507],[6.9986505,50.3631244],[6.9985767,50.3631036],[6.9984982,50.3630833],[6.9984219,50.3630676],[6.9983587,50.3630561],[6.9982957,50.3630436],[6.9982252,50.3630335],[6.9981578,50.3630213],[6.9980888,50.3630128],[6.99799,50.3629978],[6.9979065,50.3629893],[6.9978473,50.3629782],[6.9977901,50.3629684],[6.9977289,50.3629587],[6.9976718,50.3629476],[6.9976085,50.3629385],[6.997533,50.3629268],[6.9974616,50.3629157],[6.9973922,50.362906],[6.9973106,50.3628929],[6.9972371,50.3628741],[6.9971451,50.362849],[6.9970732,50.3628231],[6.9970028,50.3627956],[6.9969201,50.3627582],[6.9968456,50.3627218],[6.9967967,50.3626942],[6.996752,50.3626615],[6.9966825,50.3626193],[6.9966246,50.3625818],[6.996539,50.3625234],[6.9964563,50.3624712],[6.9963661,50.3624115],[6.9963024,50.3623672],[6.9962346,50.3623245],[6.9961541,50.3622733],[6.9960772,50.3622221],[6.996011,50.3621762],[6.9959204,50.362116],[6.9958559,50.3620706],[6.9957889,50.3620268],[6.9957174,50.3619812],[6.995643,50.3619311],[6.9955639,50.3618714],[6.9954772,50.3618137],[6.9954276,50.3617767],[6.9953911,50.3617416],[6.9953201,50.3616797],[6.99528,50.3616481],[6.9952527,50.3616175],[6.9951981,50.3615499],[6.9951576,50.3615098],[6.9951286,50.3614718],[6.9950906,50.3614238],[6.995059,50.3613732],[6.9950193,50.3613273],[6.9949829,50.3612751],[6.9949416,50.3612155],[6.9948986,50.3611644],[6.99486,50.3611088],[6.9948187,50.3610471],[6.9947441,50.3609429],[6.9946536,50.3608247],[6.9945696,50.3607093],[6.9944743,50.3605896],[6.9943881,50.3604755],[6.994302,50.3603794],[6.9942094,50.3602887],[6.9941082,50.3602077],[6.9940113,50.3601321],[6.9939101,50.3600621],[6.9938046,50.359992],[6.9936991,50.3599329],[6.993585,50.359878],[6.9934816,50.359823],[6.9933438,50.3597667],[6.9932232,50.3597227],[6.9930789,50.3596857],[6.992954,50.3596486],[6.9928205,50.3596087],[6.9926913,50.3595661],[6.99256,50.3595112],[6.9924609,50.359459],[6.992349,50.3594068],[6.9922437,50.3593461],[6.9921328,50.3592891],[6.9920208,50.3592287],[6.9918959,50.3591689],[6.991771,50.3591146],[6.9916375,50.3590631],[6.9915094,50.359024],[6.9913748,50.35899],[6.991223,50.358952],[6.9910622,50.3589227],[6.9909175,50.358902],[6.9907611,50.3588831],[6.9906209,50.3588699],[6.9904852,50.3588527],[6.9903495,50.3588321],[6.9901742,50.3588109],[6.9900493,50.3587891],[6.989907,50.358763],[6.989731,50.358738],[6.989593,50.358713],[6.9894372,50.358679],[6.9892952,50.3586417],[6.989155,50.358609],[6.9890188,50.3585752],[6.9888912,50.3585437],[6.9887635,50.3585184],[6.9886451,50.3584858],[6.988521,50.3584589],[6.9884078,50.3584302],[6.98828,50.358405],[6.98817,50.358377],[6.988052,50.35835],[6.987949,50.358325],[6.987846,50.358299],[6.9877351,50.3582692],[6.9876354,50.3582526],[6.9875266,50.3582297],[6.9874439,50.3582165],[6.9873657,50.358201],[6.9872669,50.3581878],[6.9871644,50.3581712],[6.987053,50.358161],[6.986934,50.358146],[6.9868162,50.3581344],[6.9866913,50.3581241],[6.9865781,50.3581206],[6.9864564,50.3581132],[6.9863531,50.3581103],[6.9862569,50.3581092],[6.9861589,50.3581086],[6.9860583,50.3581149],[6.9859603,50.3581235],[6.9858452,50.3581384],[6.9857392,50.3581648],[6.9856421,50.3581934],[6.9855406,50.3582244],[6.9854543,50.3582571],[6.985377,50.3582938],[6.9852936,50.3583389],[6.9852074,50.3583853],[6.9851238,50.3584341],[6.9850537,50.3584725],[6.984995,50.3585055],[6.9849267,50.3585445],[6.9848584,50.3585869],[6.984791,50.358626],[6.9847242,50.3586644],[6.9846649,50.358696],[6.984611,50.3587247],[6.9845659,50.3587451],[6.9845274,50.3587614],[6.9844861,50.3587822],[6.9844429,50.3588038],[6.9843629,50.3588319],[6.9842523,50.3588737],[6.9841706,50.3589001],[6.9840942,50.3589162],[6.9840286,50.3589288],[6.9839683,50.3589351],[6.9839153,50.3589431],[6.9838641,50.3589471],[6.9838066,50.3589466],[6.9837517,50.3589448],[6.9836951,50.3589414],[6.9836376,50.3589357],[6.9835864,50.3589265],[6.9835324,50.3589173],[6.9834875,50.358907],[6.9834291,50.3588921],[6.9833661,50.358876],[6.9833023,50.3588554],[6.9832386,50.3588352],[6.9831849,50.358815],[6.9831323,50.3587968],[6.9830863,50.3587793],[6.9830392,50.3587577],[6.9829921,50.3587332],[6.9829341,50.3587115],[6.9828815,50.3586878],[6.9828235,50.3586633],[6.9827599,50.3586333],[6.9826997,50.3586081],[6.982634,50.3585781],[6.982554,50.3585459],[6.9824774,50.3585173],[6.9824018,50.3584817],[6.9822934,50.3584383],[6.9822211,50.358402],[6.9821389,50.3583664],[6.9820677,50.3583342],[6.9819823,50.3583014],[6.9818947,50.3582587],[6.981806,50.3582231],[6.9817304,50.3581854],[6.981646,50.3581504],[6.9815617,50.3581148],[6.9814752,50.3580736],[6.9813865,50.3580288],[6.9813207,50.3579876],[6.9812704,50.3579478],[6.9812276,50.3579017],[6.9811838,50.3578486],[6.9811597,50.3578066],[6.981151,50.3577633],[6.9811433,50.3577179],[6.9811466,50.3576781],[6.9811652,50.3576298],[6.9811915,50.3575872],[6.9812189,50.3575474],[6.9812638,50.3574964],[6.9813065,50.3574593],[6.9813558,50.3574223],[6.9814138,50.357379],[6.9814752,50.3573322],[6.9815376,50.3572909],[6.9815989,50.3572462],[6.9816625,50.3572015],[6.9817205,50.3571638],[6.981783,50.3571218],[6.9818618,50.3570736],[6.9819538,50.3570205],[6.9820349,50.3569779],[6.9821137,50.3569415],[6.9821838,50.3569108],[6.9822561,50.3568821],[6.9823618,50.3568451],[6.9824527,50.3568171],[6.9825469,50.3567871],[6.9826706,50.3567543],[6.9827845,50.35672],[6.9829105,50.3566886],[6.9830288,50.3566578],[6.9831542,50.3566258],[6.9832768,50.3565993],[6.9833929,50.356572],[6.9835299,50.3565413],[6.9836624,50.3565098],[6.9837905,50.3564812],[6.9839034,50.3564553],[6.9840107,50.3564302],[6.9841238,50.3564058],[6.9842432,50.3563813],[6.9843516,50.3563632],[6.9844556,50.3563408],[6.984529,50.3563282],[6.9846002,50.3563129],[6.9846659,50.3562996],[6.9847579,50.3562807],[6.9848335,50.3562667],[6.9849014,50.3562542],[6.984966,50.3562388],[6.9850252,50.3562283],[6.9850789,50.3562157],[6.9851446,50.3561997],[6.9852125,50.3561801],[6.9852629,50.3561633],[6.9853132,50.3561445],[6.9853582,50.3561158],[6.9854009,50.3560899],[6.9854447,50.3560606],[6.9854738,50.3560349],[6.9855026,50.3560068],[6.9855328,50.35598],[6.985564,50.35595],[6.9855975,50.3559175],[6.9856353,50.3558831],[6.9856784,50.3558475],[6.9857202,50.3558038],[6.9857588,50.3557642],[6.9858064,50.3557241],[6.9858406,50.3556891],[6.9858819,50.3556461],[6.985924,50.355602],[6.985956,50.355557],[6.985987,50.35551],[6.986014,50.355464],[6.986037,50.35542],[6.98606,50.355374],[6.986082,50.355326],[6.986104,50.355279],[6.986125,50.355233],[6.986143,50.355185],[6.986165,50.355131],[6.986191,50.35508],[6.986221,50.355027],[6.986245,50.354973],[6.9862732,50.3549016],[6.9862876,50.3548472],[6.986311,50.3547749],[6.9863216,50.3547039],[6.986331,50.354632],[6.986333,50.3545539],[6.9863276,50.3544633],[6.9863093,50.3543718],[6.986287,50.3542844],[6.9862573,50.3542098],[6.9861998,50.3540976],[6.9861315,50.353995],[6.9860487,50.3538968],[6.9859561,50.3538119],[6.9858483,50.3537184],[6.9857234,50.3536353],[6.9856029,50.3535607],[6.9854699,50.3534959],[6.9853387,50.3534368],[6.9851949,50.3533835],[6.9850664,50.3533376],[6.9849234,50.35329],[6.9847859,50.3532407],[6.9846592,50.3531971],[6.9845415,50.3531576],[6.984431,50.353113],[6.9843185,50.3530755],[6.9842232,50.353044],[6.9841118,50.3530027],[6.9840021,50.3529677],[6.9838808,50.3529264],[6.9837675,50.352884],[6.983648,50.3528433],[6.9835401,50.3528083],[6.9834251,50.3527664],[6.9833181,50.3527309],[6.983222,50.3526936],[6.9830854,50.3526454],[6.9829571,50.3525962],[6.9828573,50.352555],[6.982727,50.3525068],[6.9826272,50.3524707],[6.9824816,50.352411],[6.9823657,50.3523634],[6.9822543,50.3523227],[6.9821344,50.3522772],[6.9820114,50.3522291],[6.98191,50.3521896],[6.9817923,50.352145],[6.9816779,50.3521002],[6.9815527,50.3520529],[6.9814318,50.3520054],[6.9813008,50.3519544],[6.9811907,50.3519129],[6.9810646,50.3518645],[6.9809524,50.3518219],[6.9808286,50.3517724],[6.9807117,50.3517271],[6.9805838,50.3516784],[6.9804725,50.3516372],[6.9803447,50.3515842],[6.9802155,50.3515358],[6.9800903,50.3514894],[6.9799612,50.3514398],[6.979826,50.3513873],[6.9796913,50.3513355],[6.9795587,50.3512827],[6.9794202,50.351232],[6.9792785,50.3511764],[6.9791501,50.3511269],[6.9790149,50.3510752],[6.9788685,50.351019],[6.9787653,50.3509784],[6.9786358,50.3509289],[6.9784883,50.3508708],[6.9783397,50.3508141],[6.9782003,50.3507604],[6.9780906,50.3507209],[6.9779572,50.3506688],[6.977853,50.3506285],[6.9777409,50.3505848],[6.9776124,50.3505355],[6.977481,50.3504837],[6.977338,50.3504301],[6.9772103,50.3503801],[6.9771195,50.3503455],[6.9770106,50.350304],[6.976895,50.35026],[6.9767749,50.3502141],[6.9766508,50.3501659],[6.9765479,50.3501251],[6.9764408,50.3500846],[6.9763385,50.3500454],[6.9762371,50.3500057],[6.9761208,50.3499612],[6.9759972,50.3499137],[6.975885,50.3498718],[6.9757772,50.349829],[6.9756777,50.3497911],[6.9755782,50.3497543],[6.9754699,50.3497109],[6.9753513,50.3496684],[6.9752541,50.3496262],[6.97513,50.349581],[6.9750253,50.3495408],[6.9749261,50.3495024],[6.9748239,50.3494651],[6.9747266,50.3494267],[6.9746269,50.34939],[6.9745316,50.3493498],[6.9744314,50.3493128],[6.9743142,50.3492653],[6.9742159,50.3492295],[6.9740925,50.3491808],[6.9739792,50.3491364],[6.9738919,50.349106],[6.9737706,50.3490571],[6.9736592,50.349014],[6.9735581,50.3489769],[6.9734654,50.3489393],[6.9733575,50.3488947],[6.9732606,50.3488576],[6.9731688,50.3488226],[6.9730718,50.3487839],[6.9729572,50.348736],[6.972873,50.3487021],[6.9727701,50.3486634],[6.972637,50.3486172],[6.9725418,50.3485747],[6.9724373,50.3485365],[6.9723344,50.3484956],[6.9722392,50.3484601],[6.9721204,50.3484091],[6.972015,50.3483666],[6.9719206,50.3483273],[6.9718254,50.348295],[6.9717125,50.3482468],[6.9716097,50.3482102],[6.9715102,50.3481677],[6.9713855,50.3481204],[6.9712785,50.3480779],[6.9711445,50.3480231],[6.9710627,50.3479919],[6.9709751,50.3479564],[6.9708857,50.3479209],[6.9707787,50.3478775],[6.9706733,50.3478366],[6.9705736,50.3477976],[6.9704996,50.3477658],[6.9704198,50.3477349],[6.9703187,50.3476949],[6.9702156,50.3476539],[6.9701145,50.3476139],[6.970029,50.3475775],[6.9699379,50.347543],[6.9698339,50.3474964],[6.9697628,50.3474674],[6.9696747,50.3474341],[6.9696018,50.3474045],[6.9695373,50.3473791],[6.9694615,50.3473501],[6.9694094,50.3473277],[6.9693573,50.3473072],[6.9692882,50.3472787],[6.9692199,50.3472528],[6.969147,50.3472237],[6.9690882,50.3471983],[6.9690173,50.3471695],[6.9689449,50.3471426],[6.9688911,50.3471195],[6.9688315,50.3470949],[6.9687777,50.3470725],[6.9687321,50.3470546],[6.968676,50.347033],[6.9686246,50.3470129],[6.9685685,50.346989],[6.9685101,50.3469636],[6.9684668,50.3469457],[6.9684177,50.3469271],[6.9683675,50.346907],[6.9683114,50.3468838],[6.9682588,50.3468652],[6.9682132,50.3468473],[6.9681641,50.3468279],[6.9681209,50.3468093],[6.9680753,50.3467921],[6.968018,50.3467697],[6.9679654,50.3467451],[6.9678977,50.346729],[6.9678357,50.3467183],[6.9677726,50.3467056],[6.9677015,50.3466896],[6.967644,50.346676],[6.9675816,50.3466656],[6.9675278,50.3466548],[6.9674754,50.3466426],[6.967425,50.3466317],[6.9673747,50.3466209],[6.9673244,50.3466055],[6.9672776,50.346588],[6.9672265,50.3465676],[6.9671826,50.3465495],[6.9671266,50.3465278],[6.967077,50.3465057],[6.9670338,50.3464903],[6.9669941,50.346474],[6.9669544,50.3464586],[6.966907,50.3464396],[6.9668526,50.3464166],[6.966803,50.3463976],[6.9667449,50.3463745],[6.9666882,50.3463528],[6.9666443,50.3463352],[6.9665904,50.346313],[6.9665564,50.346299],[6.9665103,50.3462814],[6.9664714,50.3462642],[6.9664239,50.3462457],[6.9663721,50.3462248],[6.9663303,50.3462081],[6.9662927,50.3461959],[6.9662509,50.3461787],[6.9661977,50.3461583],[6.9661368,50.3461321],[6.9660916,50.3461143],[6.9660461,50.3460955],[6.965999,50.3460764],[6.9659451,50.3460536],[6.9658977,50.3460351],[6.9658846,50.3460297],[6.9658716,50.3460243],[6.9658448,50.3460136],[6.9658313,50.3460079],[6.9658177,50.3460022],[6.9657903,50.3459911],[6.9657438,50.3459722]]},"properties":{"name":"Nürburgring Nordschleife Touristenfahrten"}}]}